[{
  "description": "check error code 4",
  "tleLine1": "1 33333U 05037B   05333.02012661  .25992681  00000-0  24476-3 0  1534",
  "tleLine2": "2 33333  96.4736 157.9986 9950000 244.0492 110.6523  4.00004038 10708",
  "error": 4
},{
  "description": "try and check error code 2 but this",
  "tleLine1": "1 33334U 78066F   06174.85818871  .00000620  00000-0  10000-3 0  6809",
  "tleLine2": "2 33334  68.4714 236.1303 5602877 123.7484 302.5767  0.00001000 67521",
  "error": 2
},{
  "description": "try to check error code 3 looks like ep never goes below zero, tied close to ecc",
  "tleLine1": "1 33335U 05008A   06176.46683397 -.00000205  00000-0  10000-3 0  2190",
  "tleLine2": "2 33335   0.0019 286.9433 0000004  13.7918  55.6504  1.00270176  4891",
  "error": 3
}]